2025-08-08 20:15:21,278 - src.stk_interface.stk_manager - INFO - âœ“ è·å–Patternå¯¹è±¡æˆåŠŸï¼Œç±»å‹: <class 'win32com.client.CDispatch'>
2025-08-08 20:15:21,298 - src.stk_interface.stk_manager - INFO - âœ“ è®¾ç½®å¤–é”¥è§’æˆåŠŸ: 75.0Â°
2025-08-08 20:15:21,322 - src.stk_interface.stk_manager - INFO - âœ“ è®¾ç½®å†…é”¥è§’æˆåŠŸ: 40.0Â°
2025-08-08 20:15:21,369 - src.stk_interface.stk_manager - INFO - âœ“ è®¾ç½®æ—¶é’Ÿè§’çº¦æŸæˆåŠŸ: 0.0Â° - 120.0Â°
2025-08-08 20:15:21,372 - src.stk_interface.stk_manager - INFO - âœ… åœ†é”¥è§†åœºé…ç½®æˆåŠŸ
2025-08-08 20:15:21,446 - src.stk_interface.stk_manager - INFO - âœ… æŒ‡å‘å‚æ•°é…ç½®æˆåŠŸ
2025-08-08 20:15:22,092 - src.stk_interface.stk_manager - INFO - âœ“ è·ç¦»çº¦æŸè®¾ç½®æˆåŠŸ: 100-10000km
2025-08-08 20:15:22,097 - src.stk_interface.stk_manager - INFO - âœ… çº¦æŸå‚æ•°é…ç½®æˆåŠŸ
2025-08-08 20:15:22,098 - src.stk_interface.stk_manager - INFO - âœ… ä¼ æ„Ÿå™¨åˆ›å»ºæˆåŠŸ: Satellite01_Payload
2025-08-08 20:15:22,101 - src.constellation.constellation_manager - INFO - âœ… å«æ˜Ÿåˆ›å»ºæˆåŠŸ: Satellite01 (è½¨é“é¢1, ä½ç½®1)
2025-08-08 20:15:22,163 - src.stk_interface.stk_manager - INFO - ğŸ›°ï¸ åˆ›å»ºå«æ˜Ÿå¯¹è±¡: Satellite02
2025-08-08 20:15:24,197 - src.stk_interface.stk_manager - INFO - âœ… ä¼ æ’­å™¨ç±»å‹è®¾ç½®æˆåŠŸ
2025-08-08 20:15:24,197 - src.stk_interface.stk_manager - INFO - âœ… å‚æ•° semi_axis = 7971.0 éªŒè¯é€šè¿‡
2025-08-08 20:15:24,197 - src.stk_interface.stk_manager - INFO - âœ… å‚æ•° eccentricity = 0.0 éªŒè¯é€šè¿‡
2025-08-08 20:15:24,197 - src.stk_interface.stk_manager - INFO - âœ… å‚æ•° inclination = 97.6 éªŒè¯é€šè¿‡
2025-08-08 20:15:24,198 - src.stk_interface.stk_manager - INFO - âœ… å‚æ•° raan = 0.0 éªŒè¯é€šè¿‡
2025-08-08 20:15:24,198 - src.stk_interface.stk_manager - INFO - âœ… å‚æ•° arg_of_perigee = 0.0 éªŒè¯é€šè¿‡
2025-08-08 20:15:24,198 - src.stk_interface.stk_manager - INFO - âœ… å‚æ•° mean_anomaly = 120.0 éªŒè¯é€šè¿‡
2025-08-08 20:15:24,198 - src.stk_interface.stk_manager - INFO - ğŸ”„ ä½¿ç”¨Kepleriané«˜åº¦æ–¹æ³•...
2025-08-08 20:15:24,558 - src.stk_interface.stk_manager - INFO - âœ… Kepleriané«˜åº¦æ–¹æ³•æˆåŠŸ
2025-08-08 20:15:24,692 - src.stk_interface.stk_manager - INFO - âœ… åœ°é¢è½¨è¿¹é…ç½®æˆåŠŸ
2025-08-08 20:15:24,699 - src.stk_interface.stk_manager - INFO - âœ… å«æ˜Ÿåˆ›å»ºæˆåŠŸ: Satellite02
2025-08-08 20:15:24,929 - src.stk_interface.stk_manager - INFO - ğŸ”­ åˆ›å»ºä¼ æ„Ÿå™¨: Satellite02_Payload
2025-08-08 20:15:25,962 - src.stk_interface.stk_manager - INFO - âœ“ ä¼ æ„Ÿå™¨æ¨¡å¼è®¾ç½®ä¸ºåœ†é”¥
2025-08-08 20:15:26,180 - src.stk_interface.stk_manager - INFO - âœ“ è·å–Patternå¯¹è±¡æˆåŠŸï¼Œç±»å‹: <class 'win32com.client.CDispatch'>
2025-08-08 20:15:26,199 - src.stk_interface.stk_manager - INFO - âœ“ è®¾ç½®å¤–é”¥è§’æˆåŠŸ: 75.0Â°
2025-08-08 20:15:26,220 - src.stk_interface.stk_manager - INFO - âœ“ è®¾ç½®å†…é”¥è§’æˆåŠŸ: 40.0Â°
2025-08-08 20:15:26,261 - src.stk_interface.stk_manager - INFO - âœ“ è®¾ç½®æ—¶é’Ÿè§’çº¦æŸæˆåŠŸ: 0.0Â° - 120.0Â°
2025-08-08 20:15:26,264 - src.stk_interface.stk_manager - INFO - âœ… åœ†é”¥è§†åœºé…ç½®æˆåŠŸ
2025-08-08 20:15:26,326 - src.stk_interface.stk_manager - INFO - âœ… æŒ‡å‘å‚æ•°é…ç½®æˆåŠŸ
2025-08-08 20:15:26,989 - src.stk_interface.stk_manager - INFO - âœ“ è·ç¦»çº¦æŸè®¾ç½®æˆåŠŸ: 100-10000km
2025-08-08 20:15:26,991 - src.stk_interface.stk_manager - INFO - âœ… çº¦æŸå‚æ•°é…ç½®æˆåŠŸ
2025-08-08 20:15:26,991 - src.stk_interface.stk_manager - INFO - âœ… ä¼ æ„Ÿå™¨åˆ›å»ºæˆåŠŸ: Satellite02_Payload
2025-08-08 20:15:26,995 - src.constellation.constellation_manager - INFO - âœ… å«æ˜Ÿåˆ›å»ºæˆåŠŸ: Satellite02 (è½¨é“é¢1, ä½ç½®2)
2025-08-08 20:15:27,064 - src.stk_interface.stk_manager - INFO - ğŸ›°ï¸ åˆ›å»ºå«æ˜Ÿå¯¹è±¡: Satellite03
2025-08-08 20:15:29,086 - src.stk_interface.stk_manager - INFO - âœ… ä¼ æ’­å™¨ç±»å‹è®¾ç½®æˆåŠŸ
2025-08-08 20:15:29,086 - src.stk_interface.stk_manager - INFO - âœ… å‚æ•° semi_axis = 7971.0 éªŒè¯é€šè¿‡
2025-08-08 20:15:29,086 - src.stk_interface.stk_manager - INFO - âœ… å‚æ•° eccentricity = 0.0 éªŒè¯é€šè¿‡
2025-08-08 20:15:29,087 - src.stk_interface.stk_manager - INFO - âœ… å‚æ•° inclination = 97.6 éªŒè¯é€šè¿‡
2025-08-08 20:15:29,087 - src.stk_interface.stk_manager - INFO - âœ… å‚æ•° raan = 0.0 éªŒè¯é€šè¿‡
2025-08-08 20:15:29,087 - src.stk_interface.stk_manager - INFO - âœ… å‚æ•° arg_of_perigee = 0.0 éªŒè¯é€šè¿‡
2025-08-08 20:15:29,087 - src.stk_interface.stk_manager - INFO - âœ… å‚æ•° mean_anomaly = 240.0 éªŒè¯é€šè¿‡
2025-08-08 20:15:29,087 - src.stk_interface.stk_manager - INFO - ğŸ”„ ä½¿ç”¨Kepleriané«˜åº¦æ–¹æ³•...
2025-08-08 20:15:29,415 - src.stk_interface.stk_manager - INFO - âœ… Kepleriané«˜åº¦æ–¹æ³•æˆåŠŸ
2025-08-08 20:15:29,556 - src.stk_interface.stk_manager - INFO - âœ… åœ°é¢è½¨è¿¹é…ç½®æˆåŠŸ
2025-08-08 20:15:29,563 - src.stk_interface.stk_manager - INFO - âœ… å«æ˜Ÿåˆ›å»ºæˆåŠŸ: Satellite03
2025-08-08 20:15:29,790 - src.stk_interface.stk_manager - INFO - ğŸ”­ åˆ›å»ºä¼ æ„Ÿå™¨: Satellite03_Payload
2025-08-08 20:15:30,811 - src.stk_interface.stk_manager - INFO - âœ“ ä¼ æ„Ÿå™¨æ¨¡å¼è®¾ç½®ä¸ºåœ†é”¥
2025-08-08 20:15:31,027 - src.stk_interface.stk_manager - INFO - âœ“ è·å–Patternå¯¹è±¡æˆåŠŸï¼Œç±»å‹: <class 'win32com.client.CDispatch'>
2025-08-08 20:15:31,039 - src.stk_interface.stk_manager - INFO - âœ“ è®¾ç½®å¤–é”¥è§’æˆåŠŸ: 75.0Â°
2025-08-08 20:15:31,056 - src.stk_interface.stk_manager - INFO - âœ“ è®¾ç½®å†…é”¥è§’æˆåŠŸ: 40.0Â°
2025-08-08 20:15:31,088 - src.stk_interface.stk_manager - INFO - âœ“ è®¾ç½®æ—¶é’Ÿè§’çº¦æŸæˆåŠŸ: 0.0Â° - 120.0Â°
2025-08-08 20:15:31,090 - src.stk_interface.stk_manager - INFO - âœ… åœ†é”¥è§†åœºé…ç½®æˆåŠŸ
2025-08-08 20:15:31,147 - src.stk_interface.stk_manager - INFO - âœ… æŒ‡å‘å‚æ•°é…ç½®æˆåŠŸ
2025-08-08 20:15:31,755 - src.stk_interface.stk_manager - INFO - âœ“ è·ç¦»çº¦æŸè®¾ç½®æˆåŠŸ: 100-10000km
2025-08-08 20:15:31,760 - src.stk_interface.stk_manager - INFO - âœ… çº¦æŸå‚æ•°é…ç½®æˆåŠŸ
2025-08-08 20:15:31,760 - src.stk_interface.stk_manager - INFO - âœ… ä¼ æ„Ÿå™¨åˆ›å»ºæˆåŠŸ: Satellite03_Payload
2025-08-08 20:15:31,763 - src.constellation.constellation_manager - INFO - âœ… å«æ˜Ÿåˆ›å»ºæˆåŠŸ: Satellite03 (è½¨é“é¢1, ä½ç½®3)
2025-08-08 20:15:31,881 - src.stk_interface.stk_manager - INFO - ğŸ›°ï¸ åˆ›å»ºå«æ˜Ÿå¯¹è±¡: Satellite04
2025-08-08 20:15:33,907 - src.stk_interface.stk_manager - INFO - âœ… ä¼ æ’­å™¨ç±»å‹è®¾ç½®æˆåŠŸ
2025-08-08 20:15:33,907 - src.stk_interface.stk_manager - INFO - âœ… å‚æ•° semi_axis = 7971.0 éªŒè¯é€šè¿‡
2025-08-08 20:15:33,908 - src.stk_interface.stk_manager - INFO - âœ… å‚æ•° eccentricity = 0.0 éªŒè¯é€šè¿‡
2025-08-08 20:15:33,908 - src.stk_interface.stk_manager - INFO - âœ… å‚æ•° inclination = 97.6 éªŒè¯é€šè¿‡
2025-08-08 20:15:33,908 - src.stk_interface.stk_manager - INFO - âœ… å‚æ•° raan = 120.0 éªŒè¯é€šè¿‡
2025-08-08 20:15:33,908 - src.stk_interface.stk_manager - INFO - âœ… å‚æ•° arg_of_perigee = 0.0 éªŒè¯é€šè¿‡
2025-08-08 20:15:33,908 - src.stk_interface.stk_manager - INFO - âœ… å‚æ•° mean_anomaly = 40.0 éªŒè¯é€šè¿‡
2025-08-08 20:15:33,908 - src.stk_interface.stk_manager - INFO - ğŸ”„ ä½¿ç”¨Kepleriané«˜åº¦æ–¹æ³•...
2025-08-08 20:15:34,257 - src.stk_interface.stk_manager - INFO - âœ… Kepleriané«˜åº¦æ–¹æ³•æˆåŠŸ
2025-08-08 20:15:34,399 - src.stk_interface.stk_manager - INFO - âœ… åœ°é¢è½¨è¿¹é…ç½®æˆåŠŸ
2025-08-08 20:15:34,407 - src.stk_interface.stk_manager - INFO - âœ… å«æ˜Ÿåˆ›å»ºæˆåŠŸ: Satellite04
2025-08-08 20:15:34,650 - src.stk_interface.stk_manager - INFO - ğŸ”­ åˆ›å»ºä¼ æ„Ÿå™¨: Satellite04_Payload
2025-08-08 20:15:35,686 - src.stk_interface.stk_manager - INFO - âœ“ ä¼ æ„Ÿå™¨æ¨¡å¼è®¾ç½®ä¸ºåœ†é”¥
2025-08-08 20:15:35,914 - src.stk_interface.stk_manager - INFO - âœ“ è·å–Patternå¯¹è±¡æˆåŠŸï¼Œç±»å‹: <class 'win32com.client.CDispatch'>
2025-08-08 20:15:35,926 - src.stk_interface.stk_manager - INFO - âœ“ è®¾ç½®å¤–é”¥è§’æˆåŠŸ: 75.0Â°
2025-08-08 20:15:35,943 - src.stk_interface.stk_manager - INFO - âœ“ è®¾ç½®å†…é”¥è§’æˆåŠŸ: 40.0Â°
2025-08-08 20:15:36,011 - src.stk_interface.stk_manager - INFO - âœ“ è®¾ç½®æ—¶é’Ÿè§’çº¦æŸæˆåŠŸ: 0.0Â° - 120.0Â°
2025-08-08 20:15:36,013 - src.stk_interface.stk_manager - INFO - âœ… åœ†é”¥è§†åœºé…ç½®æˆåŠŸ
2025-08-08 20:15:36,088 - src.stk_interface.stk_manager - INFO - âœ… æŒ‡å‘å‚æ•°é…ç½®æˆåŠŸ
2025-08-08 20:15:36,694 - src.stk_interface.stk_manager - INFO - âœ“ è·ç¦»çº¦æŸè®¾ç½®æˆåŠŸ: 100-10000km
2025-08-08 20:15:36,698 - src.stk_interface.stk_manager - INFO - âœ… çº¦æŸå‚æ•°é…ç½®æˆåŠŸ
2025-08-08 20:15:36,699 - src.stk_interface.stk_manager - INFO - âœ… ä¼ æ„Ÿå™¨åˆ›å»ºæˆåŠŸ: Satellite04_Payload
2025-08-08 20:15:36,702 - src.constellation.constellation_manager - INFO - âœ… å«æ˜Ÿåˆ›å»ºæˆåŠŸ: Satellite04 (è½¨é“é¢2, ä½ç½®1)
2025-08-08 20:15:36,765 - src.stk_interface.stk_manager - INFO - ğŸ›°ï¸ åˆ›å»ºå«æ˜Ÿå¯¹è±¡: Satellite05
2025-08-08 20:15:38,804 - src.stk_interface.stk_manager - INFO - âœ… ä¼ æ’­å™¨ç±»å‹è®¾ç½®æˆåŠŸ
2025-08-08 20:15:38,804 - src.stk_interface.stk_manager - INFO - âœ… å‚æ•° semi_axis = 7971.0 éªŒè¯é€šè¿‡
2025-08-08 20:15:38,805 - src.stk_interface.stk_manager - INFO - âœ… å‚æ•° eccentricity = 0.0 éªŒè¯é€šè¿‡
2025-08-08 20:15:38,805 - src.stk_interface.stk_manager - INFO - âœ… å‚æ•° inclination = 97.6 éªŒè¯é€šè¿‡
2025-08-08 20:15:38,805 - src.stk_interface.stk_manager - INFO - âœ… å‚æ•° raan = 120.0 éªŒè¯é€šè¿‡
2025-08-08 20:15:38,805 - src.stk_interface.stk_manager - INFO - âœ… å‚æ•° arg_of_perigee = 0.0 éªŒè¯é€šè¿‡
2025-08-08 20:15:38,805 - src.stk_interface.stk_manager - INFO - âœ… å‚æ•° mean_anomaly = 160.0 éªŒè¯é€šè¿‡
2025-08-08 20:15:38,805 - src.stk_interface.stk_manager - INFO - ğŸ”„ ä½¿ç”¨Kepleriané«˜åº¦æ–¹æ³•...
2025-08-08 20:15:39,142 - src.stk_interface.stk_manager - INFO - âœ… Kepleriané«˜åº¦æ–¹æ³•æˆåŠŸ
2025-08-08 20:15:39,283 - src.stk_interface.stk_manager - INFO - âœ… åœ°é¢è½¨è¿¹é…ç½®æˆåŠŸ
2025-08-08 20:15:39,291 - src.stk_interface.stk_manager - INFO - âœ… å«æ˜Ÿåˆ›å»ºæˆåŠŸ: Satellite05
2025-08-08 20:15:39,569 - src.stk_interface.stk_manager - INFO - ğŸ”­ åˆ›å»ºä¼ æ„Ÿå™¨: Satellite05_Payload
2025-08-08 20:15:40,593 - src.stk_interface.stk_manager - INFO - âœ“ ä¼ æ„Ÿå™¨æ¨¡å¼è®¾ç½®ä¸ºåœ†é”¥
